STARLINK-2394
1 27813C 21018AC  21325.14845026  .00003880  00000-0  25995-3 0  3253
2 27813  53.0562  77.5662 0001361  85.7350 213.5394 15.06398693    16
